StoreName,StoreType,StoreOpeningDate,Address,City,State,Country,Region,Manager Name
The Harmony Treasures,Exclusive,1970-02-19,92936 Amanda Loop Apt. 414 Sarahtown  OK 06812,Smithberg,Minnesota,Albania,West,Angela
The Urban Creations,SMB,1993-07-13,PSC 9060  Box 9171 APO AE 20124,Sotohaven,Illinois,Grenada,West,Matthew
The Stylish Enclave,Exclusive,2019-02-21,204 Corey Parkways Cruztown  DE 45108,Curtisport,North Carolina,Mauritania,West,Christopher
The Blissful Marketplace,SMB,2023-08-22,Unit 7447 Box 1446 DPO AA 52773,Patriciafurt,West Virginia,Jersey,West,David
The Vintage Loft,Exclusive,1978-09-12,USCGC Brown FPO AP 41033,South Benjaminburgh,Pennsylvania,Latvia,East,Eric
The Happy Marketplace,Exclusive,1999-09-23,976 Young Alley Suite 865 Duncanside  DC 07560,East Elizabeth,Arkansas,Canada,North,Kevin
The Urban Finds,MBO,1977-08-17,0705 Michael Drive Apt. 549 North Katrinaville  AS 76580,North Eric,Louisiana,Syrian Arab Republic,North,Samuel
The Luxe Closet,SMB,2015-12-19,2438 Dodson Roads Gallagherburgh  NM 86183,South Allenburgh,Kentucky,Wallis and Futuna,West,Evelyn
The Rustic Oasis,Outlet Stores,1990-05-23,27109 Shelly Rest Lake Timothy  UT 14943,Shirleytown,Oklahoma,Vietnam,West,Ashley
The Chic Loft,MBO,2001-01-07,07722 Welch Burgs Marshallmouth  AL 03434,South Elizabethburgh,Ohio,Tunisia,South,Shawn
The Cozy Essentials,SMB,1977-02-12,795 Keith Isle Suite 380 Emilyborough  NH 57952,Sandersside,Virginia,Italy,North,Kevin
The Unique Finds,Exclusive,2012-05-03,PSC 6201  Box 8145 APO AA 66195,Michaelbury,North Carolina,Hong Kong,South,Emily
The Luxe Loft,MBO,1977-03-05,6274 Clifford Manor Apt. 675 New Roberttown  NJ 26839,North Alexandramouth,Vermont,Panama,North,Jonathan
The Radiant Loft,MBO,1995-06-18,2120 Hubbard Pike East Lori  KY 09584,Lake Ashley,Minnesota,Armenia,South,David
The Purely Creations,Outlet Stores,2020-09-24,83246 James Lock Suite 615 West Larry  MS 00776,Leeborough,New Mexico,Cambodia,North,Sabrina
The Chic Marketplace,Outlet Stores,1990-08-11,19164 Fox Bridge Port Donnachester  UT 30982,North Chadfurt,Georgia,Saint Vincent and the Grenadines,South,Michelle
The Eclectic Merchant,Outlet Stores,1977-05-19,886 Taylor Street Apt. 449 North Jeffrey  DC 33459,Alanbury,Florida,Nauru,North,Eric
The Radiant Closet,SMB,1978-05-07,22531 Harrison Inlet Apt. 646 North Nathanielhaven  CO 44572,West Dominiquetown,South Dakota,Falkland Islands (Malvinas),West,Joel
The Rustic Shoppe,SMB,1988-12-11,1734 Samantha Canyon Port Kevin  MA 21688,Lake Timothy,Indiana,Mexico,East,Sarah
The Stylish Closet,Outlet Stores,2023-03-06,06124 Ferguson Crossing Fordside  NV 74503,Lake Linda,Illinois,Guatemala,East,Carrie
The Cozy Marvels,Exclusive,1993-09-16,257 Johnson Way Daychester  MI 24972,Wiseberg,West Virginia,Mayotte,South,Eileen
The Stylish Oasis,Outlet Stores,2021-12-16,006 Reyes Mills Suite 410 Lake Ronaldton  VI 55539,Christopherfort,Massachusetts,Kazakhstan,South,Christina
The Happy Deals,Exclusive,1993-04-14,60087 Matthew Ports Suite 500 South Seanmouth  CT 84811,West Shanehaven,South Dakota,Venezuela,North,Anne
The Eclectic Shoppe,MBO,1998-07-27,USCGC Durham FPO AA 60121,Josephton,Nevada,Norfolk Island,East,Megan
The Purely Elegance,Outlet Stores,2002-04-24,2359 Brittany Prairie North Christopherview  CT 98325,Dennisville,Hawaii,Azerbaijan,South,Veronica
The Serene Nook,MBO,1993-07-06,79839 John Plains South Kendraland  IN 58008,South Crystalfort,Utah,Slovenia,East,Alexander
The Trendy Closet,MBO,1975-03-11,245 Peterson Stravenue East Benjamintown  OH 38607,Williamsmouth,Indiana,Tonga,North,Victor
The Purely Vault,SMB,2004-06-22,PSC 0573  Box 3357 APO AE 62854,Owensfurt,Nebraska,Serbia,North,Dennis
The Happy Reflections,Exclusive,1971-10-07,980 Rubio Trafficway Port Luis  WY 95155,Danielchester,Oregon,Venezuela,East,Shawn
The Trendy Reflections,Exclusive,1984-11-08,271 James Pass Millsshire  DE 21611,South David,Vermont,Haiti,West,John
The Golden Reflections,Exclusive,2014-02-21,3568 Mills Lights West Christopherburgh  DE 38542,Tylerton,Oklahoma,Serbia,East,Joseph
The Rustic Marketplace,Exclusive,2016-07-21,0746 Lopez Plains West Julie  NY 65233,East Gregory,Missouri,North Macedonia,North,Ryan
The Urban Boutique,Exclusive,1971-10-29,1107 Lauren Drive Suite 506 Fitzgeraldland  CO 38414,West Christopher,Kentucky,Malta,South,Kimberly
The Blissful Treasures,SMB,2010-01-06,69325 Aguirre Vista Suite 768 Johnsonhaven  MA 90043,Angelfurt,Georgia,Estonia,West,Michelle
The Happy Merchant,Exclusive,2010-12-12,452 Christina Orchard Maryton  ID 26247,South Charles,Utah,Mauritius,West,April
The Radiant Closet,SMB,1981-02-15,42538 Arias Plains Port Jenniferton  MS 35259,Robinsonhaven,Wisconsin,Vanuatu,South,Connie
The Purely Sanctuary,MBO,2009-03-31,47024 Melissa Walks Courtneyview  IA 46401,East Alyssa,Ohio,North Macedonia,South,Zachary
The Enchanted Emporium,MBO,1985-09-09,7004 Cole Ramp South Lucasmouth  CT 34433,New Nicole,Montana,Maldives,South,Kristen
The Trendy Closet,Outlet Stores,1974-09-10,341 Tucker Hills East Mason  MP 46186,Amychester,West Virginia,Kyrgyz Republic,East,Kelly
The Vintage Loft,SMB,1984-02-16,557 Margaret Club Apt. 247 New Katherinefurt  AL 62927,Larafort,Louisiana,French Guiana,West,Michelle
The Dapper Finds,SMB,2020-12-19,954 Margaret Haven Suite 688 Walshbury  WA 08735,Ashleyburgh,Texas,Antigua and Barbuda,East,Vincent
The Luxe Shoppe,Exclusive,1988-02-19,01308 Johnson Passage West Williambury  VI 02217,Yolandaton,Hawaii,Solomon Islands,East,Stephanie
The Serene Corner,Exclusive,1992-11-01,PSC 3728  Box 6352 APO AE 41496,Port Christopherbury,Mississippi,Denmark,West,Isaiah
The Polished Perfection,Outlet Stores,1978-02-21,5002 Brent Prairie West Ronaldtown  NE 45532,West Ryan,Colorado,Burkina Faso,East,Melissa
The Serene Nook,Outlet Stores,1999-08-05,774 Miller Estate Suite 766 Hamiltonland  KY 20953,Lake Debra,Virginia,Tanzania,West,Clayton
The Golden Deals,Outlet Stores,1994-07-23,45979 Wallace Wall East Sarah  KY 54432,Taylorside,Hawaii,Lebanon,West,Linda
The Serene Quest,SMB,1986-07-30,5324 Arroyo Burg East Markside  SC 54825,Tammyborough,Iowa,Hungary,South,Kyle
The Happy Perfection,Outlet Stores,2013-06-23,74289 John Light Apt. 766 Tammymouth  TX 89337,Josephhaven,Kansas,Burundi,East,Amanda
The Purely Emporium,SMB,1991-11-13,266 Garrett Branch East Daniel  MD 83225,Heatherview,Louisiana,Bangladesh,West,Timothy
The Trendy Marketplace,Exclusive,2022-03-02,68897 Rivera Key Suite 166 Jennifermouth  OH 34658,Roachville,California,New Zealand,East,Rebecca
The Eclectic Deals,Exclusive,1984-04-24,094 Cheryl Crescent Suite 649 Alexville  IL 29280,West Tyler,New Hampshire,Benin,East,Kenneth
The Timeless Elegance,MBO,2005-01-11,020 Frank Islands Apt. 057 Hansonborough  MN 19349,West Ruthton,Tennessee,Bahrain,East,Jasmine
The Harmony Corner,SMB,2003-01-06,PSC 2701  Box 1949 APO AP 84804,Onealland,Kentucky,Kuwait,South,Sheila
The Rustic Boutique,SMB,1986-06-03,1986 Robert Rue West Michelle  GA 71356,New Lukemouth,Massachusetts,Georgia,West,Alyssa
The Golden Haven,Exclusive,1984-05-31,037 Trevor Points Thompsonberg  AL 03701,South Michael,North Dakota,Guadeloupe,West,Lindsey
The Rustic Shop,MBO,2017-12-19,9385 Garrett Plains Apt. 543 New Kevin  MA 68544,New Kristopherchester,Idaho,Greece,East,Cynthia
The Polished Finds,Outlet Stores,1977-04-23,1601 Shepard Fields Amandaburgh  NH 61173,Perezhaven,Oklahoma,Romania,North,Amanda
The Vintage Finds,MBO,2015-12-20,0329 Hendricks Ridges Apt. 481 New Ronald  VA 02164,Walterport,New Jersey,Pitcairn Islands,South,Michael
The Enchanted Emporium,Exclusive,1972-03-02,4342 Caleb Stream Apt. 852 Alvarezmouth  DC 37678,Chloeton,New Hampshire,Canada,West,Riley
The Modern Merchant,Exclusive,1998-12-11,799 Henson Shoal West Ashley  FM 73364,Morrowburgh,Arkansas,Aruba,East,Daniel
The Shimmer Avenue,Outlet Stores,1976-07-11,225 King Plain East Michaelside  CA 29818,Dylanton,Texas,Bulgaria,North,Mario
The Purely Enclave,Outlet Stores,1999-05-15,USNS Miles FPO AE 52628,East Pamelamouth,Florida,Central African Republic,North,Anita
The Enchanted Enclave,SMB,2012-06-23,539 Denise Vista Nixonhaven  MT 57131,Fullerview,Georgia,Bahrain,West,Charles
The Serene Hub,Exclusive,1980-04-13,6730 Brown Tunnel East Lancemouth  OH 70666,Madisonmouth,Virginia,Uzbekistan,South,Marc
The Serene Creations,SMB,1971-10-10,6290 Ebony Square Suite 232 Port Latoyatown  FL 59398,West Veronicashire,Indiana,Ecuador,North,Samantha
The Unique Essentials,MBO,1994-03-15,Unit 5479 Box 2964 DPO AP 08380,New Candace,Hawaii,Papua New Guinea,North,Randy
The Rustic Essentials,MBO,2013-05-15,400 Butler Glens Aaronhaven  MT 01050,Lake Kathryn,Maryland,Anguilla,South,Kyle
The Trendy Hub,SMB,1987-11-12,36635 Brown Forges Suite 291 Jacobburgh  IA 36994,West Bailey,Indiana,Saint Martin,East,Kelly
The Timeless Shoppe,SMB,2023-11-21,69008 Stephen View Maloneland  OR 09957,Rodriguezport,Florida,Lebanon,South,Michelle
The Chic Nook,Outlet Stores,2005-05-28,1181 Horton Stream Suite 962 Shawnbury  NE 02613,Garytown,Minnesota,Tonga,East,Cassandra
The Serene Deals,Outlet Stores,2010-12-10,PSC 4184  Box 8289 APO AP 31101,Reyesville,Michigan,Norfolk Island,East,Jodi
The Chic Closet,Exclusive,2020-01-07,44957 Sparks Corners Suite 754 New Troyborough  IN 87273,East Edwardside,Wyoming,Martinique,West,Paige
The Stylish Nook,MBO,1970-07-16,08616 Bullock Lights Williamberg  UT 28401,East Valerie,Montana,Spain,North,Brian
The Whimsy Hub,Outlet Stores,2024-06-16,87320 Hester Knolls Gabrielmouth  HI 59653,North Jamesmouth,Kentucky,Netherlands,North,Lisa
The Timeless Shop,SMB,1978-04-11,0148 Holly Flats Suite 979 Lake Jennifer  HI 10430,East Christineburgh,Rhode Island,Palau,West,Jamie
The Whimsy Essentials,SMB,1985-02-19,0061 Brown Vista Apt. 871 Anneburgh  HI 40648,Wolfeland,Missouri,Tonga,East,Rachel
The Artisan Sanctuary,MBO,2019-03-22,687 Wood Avenue South Jesse  NJ 77708,New Heather,Colorado,Russian Federation,South,Bruce
The Purely Perfection,SMB,2020-06-13,5396 Stout Land Suite 566 Lake Wandaburgh  NV 62177,Morenofurt,Michigan,Congo,West,Ronald
The Elegant Enclave,SMB,2008-03-27,7346 Shelley Courts Campbelltown  MN 39125,Bridgesborough,Colorado,Falkland Islands (Malvinas),South,Jonathan
The Blissful Perfection,MBO,2012-04-08,2305 Kathy Lakes Suite 049 North Charlottetown  FM 87118,East Bryan,Oklahoma,China,South,Tracy
The Vintage Cabinet,MBO,1995-06-13,838 Anderson Fields Suite 641 Jameston  WI 17398,East Jeffrey,Florida,Svalbard & Jan Mayen Islands,North,David
The Harmony Quest,MBO,1999-06-14,7682 Alyssa Estates Lake Kari  LA 44222,Lauraborough,Alabama,Cocos (Keeling) Islands,South,Jennifer
The Urban Cabinet,MBO,1984-01-14,21766 Karen Coves Kellytown  MH 04099,Jeanville,Minnesota,Azerbaijan,South,Michelle
The Dapper Elegance,MBO,1985-03-19,058 Butler Turnpike North Catherine  AK 89451,Johnsonfort,Kansas,North Macedonia,East,Dana
The Modern Elegance,SMB,1980-06-17,01367 Young Walk Suite 966 Mcculloughshire  PW 13979,South Carlaland,Delaware,Dominican Republic,North,Raymond
The Happy Marketplace,Outlet Stores,2019-01-15,070 Michael Knoll New Michaelside  VT 49319,Ryanville,Colorado,Kuwait,East,Brad
The Majestic Emporium,MBO,1973-06-12,35046 Jackson Falls North Linda  IL 92773,Timothyton,Nebraska,Zimbabwe,North,Anthony
The Modern Marketplace,Exclusive,1977-01-12,7728 Oliver Pines Port Lindsay  MH 25869,West Mary,Arkansas,Cape Verde,South,Jessica
The Artisan Shop,Exclusive,1977-10-13,42295 Robert Camp Apt. 238 South Joshualand  AZ 97463,South Suzanne,Delaware,Malawi,West,Daniel
The Rustic Haven,Outlet Stores,1979-06-22,67287 Smith Highway East Susanmouth  IL 14312,Shieldsborough,Minnesota,Saint Barthelemy,South,Ashley
The Harmony Deals,MBO,2005-02-10,79764 Brittney Views Port Dianemouth  SC 91936,Salazarberg,Michigan,American Samoa,West,Caitlin
The Classy Vault,Outlet Stores,2011-03-28,7298 Chavez Drive Elizabethport  NE 66091,North Valerie,Maryland,Bermuda,North,John
The Timeless Emporium,Outlet Stores,2002-08-03,737 John Radial Haysburgh  VT 48365,Lewisside,Wyoming,Belize,East,Carla
The Happy Haven,Exclusive,1988-06-21,048 Jared Port Susanport  WV 12949,Sarahport,Delaware,Cocos (Keeling) Islands,South,Ronald
The Classy Nook,SMB,2010-02-13,60601 Miller Plaza New Lindafort  VT 36083,Jenningsshire,Illinois,Yemen,South,Michael
The Blissful Treasures,Exclusive,1981-02-01,3531 Reginald Street Thomasmouth  IL 49658,Gabriellestad,Arkansas,France,South,Jason
The Enchanted Marvels,SMB,2011-08-09,18958 Julie Heights North Jasonshire  NM 22504,Darrenstad,Montana,Slovenia,West,Mark
The Serene Avenue,Outlet Stores,1984-05-02,388 Anthony Fork Apt. 163 South Jennifer  LA 02157,New Joseph,Arkansas,Iceland,West,Anthony
The Cozy Sanctuary,Outlet Stores,2006-10-12,PSC 0950  Box 0327 APO AA 18552,Johnchester,Massachusetts,French Southern Territories,South,Daniel
The Chic Loft,Outlet Stores,2003-06-24,799 Scott Inlet Apt. 640 Nunezberg  NE 91849,Perezmouth,Rhode Island,Taiwan,West,Kevin
